{
  "norad_id": 57497,
  "name": "STARLINK-30226",
  "history": [
    {
      "epoch": "2026-03-28T20:00:14.822496Z",
      "apogee_km": 486.6693430378946,
      "perigee_km": 484.4920345126611,
      "latitude_deg": 2.5287007823205276e-05,
      "longitude_deg": 141.60159075633953,
      "height_km": 485.1279702539352,
      "semi_major_axis_km": 6863.717688775278,
      "eccentricity": 0.00015861,
      "inclination_deg": 43.0029,
      "raan_deg": 267.9116,
      "arg_perigee_deg": 282.1957,
      "mean_anomaly_deg": 77.8717,
      "mean_motion_rev_day": 15.26734936
    }
  ]
}